CCSDS_OMM_VERS = 2.0
CREATION_DATE  = 
ORIGINATOR     = 

OBJECT_NAME    = SL-3 R/B
OBJECT_ID      = 1982-079B
CENTER_NAME    = EARTH
REF_FRAME      = TEME
TIME_SYSTEM    = UTC
MEAN_ELEMENT_THEORY = SGP/SGP4

EPOCH          = 2026-03-21T13:03:19.645632
MEAN_MOTION    = 15.24957980
ECCENTRICITY   = .00254814
INCLINATION    = 81.1490
RA_OF_ASC_NODE = 179.0812
ARG_OF_PERICENTER = 125.6431
MEAN_ANOMALY   = 234.7181

EPHEMERIS_TYPE = 0
CLASSIFICATION_TYPE = U
NORAD_CAT_ID   = 13403
ELEMENT_SET_NO = 999
REV_AT_EPOCH   = 37950
BSTAR          = .33213767E-3
MEAN_MOTION_DOT = .838E-4
MEAN_MOTION_DDOT = 0

CCSDS_OMM_VERS = 2.0
CREATION_DATE  = 
ORIGINATOR     = 

OBJECT_NAME    = SL-14 R/B
OBJECT_ID      = 1982-092B
CENTER_NAME    = EARTH
REF_FRAME      = TEME
TIME_SYSTEM    = UTC
MEAN_ELEMENT_THEORY = SGP/SGP4

EPOCH          = 2026-03-21T13:48:38.109312
MEAN_MOTION    = 14.86676931
ECCENTRICITY   = .00187721
INCLINATION    = 82.5672
RA_OF_ASC_NODE = 130.2816
ARG_OF_PERICENTER = 261.0209
MEAN_ANOMALY   = 260.3175

EPHEMERIS_TYPE = 0
CLASSIFICATION_TYPE = U
NORAD_CAT_ID   = 13553
ELEMENT_SET_NO = 999
REV_AT_EPOCH   = 33069
BSTAR          = .46435529E-4
MEAN_MOTION_DOT = .438E-5
MEAN_MOTION_DDOT = 0

CCSDS_OMM_VERS = 2.0
CREATION_DATE  = 
ORIGINATOR     = 

OBJECT_NAME    = SL-3 R/B
OBJECT_ID      = 1983-010B
CENTER_NAME    = EARTH
REF_FRAME      = TEME
TIME_SYSTEM    = UTC
MEAN_ELEMENT_THEORY = SGP/SGP4

EPOCH          = 2026-03-21T11:19:10.661088
MEAN_MOTION    = 15.46744086
ECCENTRICITY   = .00168223
INCLINATION    = 81.1058
RA_OF_ASC_NODE = 347.8008
ARG_OF_PERICENTER = 11.8751
MEAN_ANOMALY   = 348.2887

EPHEMERIS_TYPE = 0
CLASSIFICATION_TYPE = U
NORAD_CAT_ID   = 13819
ELEMENT_SET_NO = 999
REV_AT_EPOCH   = 35976
BSTAR          = .42908463E-3
MEAN_MOTION_DOT = .21644E-3
MEAN_MOTION_DDOT = 0

CCSDS_OMM_VERS = 2.0
CREATION_DATE  = 
ORIGINATOR     = 

OBJECT_NAME    = SL-3 R/B
OBJECT_ID      = 1983-075B
CENTER_NAME    = EARTH
REF_FRAME      = TEME
TIME_SYSTEM    = UTC
MEAN_ELEMENT_THEORY = SGP/SGP4

EPOCH          = 2026-03-21T14:08:14.478144
MEAN_MOTION    = 15.38683742
ECCENTRICITY   = .00214135
INCLINATION    = 97.6140
RA_OF_ASC_NODE = 85.6191
ARG_OF_PERICENTER = 181.7426
MEAN_ANOMALY   = 178.3748

EPHEMERIS_TYPE = 0
CLASSIFICATION_TYPE = U
NORAD_CAT_ID   = 14208
ELEMENT_SET_NO = 999
REV_AT_EPOCH   = 33198
BSTAR          = .38228585E-3
MEAN_MOTION_DOT = .14647E-3
MEAN_MOTION_DDOT = 0

CCSDS_OMM_VERS = 2.0
CREATION_DATE  = 
ORIGINATOR     = 

OBJECT_NAME    = COSMOS 1536
OBJECT_ID      = 1984-013A
CENTER_NAME    = EARTH
REF_FRAME      = TEME
TIME_SYSTEM    = UTC
MEAN_ELEMENT_THEORY = SGP/SGP4

EPOCH          = 2026-03-21T12:56:31.781472
MEAN_MOTION    = 15.23973546
ECCENTRICITY   = .00126955
INCLINATION    = 82.5413
RA_OF_ASC_NODE = 96.0666
ARG_OF_PERICENTER = 236.1827
MEAN_ANOMALY   = 123.8202

EPHEMERIS_TYPE = 0
CLASSIFICATION_TYPE = U
NORAD_CAT_ID   = 14699
ELEMENT_SET_NO = 999
REV_AT_EPOCH   = 27442
BSTAR          = .32108158E-3
MEAN_MOTION_DOT = .7818E-4
MEAN_MOTION_DDOT = 0

CCSDS_OMM_VERS = 2.0
CREATION_DATE  = 
ORIGINATOR     = 

OBJECT_NAME    = SL-14 R/B
OBJECT_ID      = 1984-027B
CENTER_NAME    = EARTH
REF_FRAME      = TEME
TIME_SYSTEM    = UTC
MEAN_ELEMENT_THEORY = SGP/SGP4

EPOCH          = 2026-03-21T11:27:04.972032
MEAN_MOTION    = 14.85988517
ECCENTRICITY   = .00166059
INCLINATION    = 82.5401
RA_OF_ASC_NODE = 233.9556
ARG_OF_PERICENTER = 296.6556
MEAN_ANOMALY   = 63.2959

EPHEMERIS_TYPE = 0
CLASSIFICATION_TYPE = U
NORAD_CAT_ID   = 14820
ELEMENT_SET_NO = 999
REV_AT_EPOCH   = 24938
BSTAR          = .56519364E-4
MEAN_MOTION_DOT = .519E-5
MEAN_MOTION_DDOT = 0

CCSDS_OMM_VERS = 2.0
CREATION_DATE  = 
ORIGINATOR     = 

OBJECT_NAME    = SL-8 R/B
OBJECT_ID      = 1985-006B
CENTER_NAME    = EARTH
REF_FRAME      = TEME
TIME_SYSTEM    = UTC
MEAN_ELEMENT_THEORY = SGP/SGP4

EPOCH          = 2026-03-21T13:21:58.789152
MEAN_MOTION    = 14.37792024
ECCENTRICITY   = .00179593
INCLINATION    = 74.0438
RA_OF_ASC_NODE = 239.3093
ARG_OF_PERICENTER = 153.8661
MEAN_ANOMALY   = 271.8865

EPHEMERIS_TYPE = 0
CLASSIFICATION_TYPE = U
NORAD_CAT_ID   = 15483
ELEMENT_SET_NO = 999
REV_AT_EPOCH   = 15573
BSTAR          = .12781993E-3
MEAN_MOTION_DOT = .359E-5
MEAN_MOTION_DDOT = 0

CCSDS_OMM_VERS = 2.0
CREATION_DATE  = 
ORIGINATOR     = 

OBJECT_NAME    = SL-12 R/B(2)
OBJECT_ID      = 1985-042D
CENTER_NAME    = EARTH
REF_FRAME      = TEME
TIME_SYSTEM    = UTC
MEAN_ELEMENT_THEORY = SGP/SGP4

EPOCH          = 2026-03-21T09:07:52.987296
MEAN_MOTION    = 14.21985462
ECCENTRICITY   = .00329045
INCLINATION    = 71.1071
RA_OF_ASC_NODE = 63.0269
ARG_OF_PERICENTER = 108.7951
MEAN_ANOMALY   = 357.9679

EPHEMERIS_TYPE = 0
CLASSIFICATION_TYPE = U
NORAD_CAT_ID   = 15772
ELEMENT_SET_NO = 999
REV_AT_EPOCH   = 11605
BSTAR          = .49541584E-4
MEAN_MOTION_DOT = .63E-6
MEAN_MOTION_DDOT = 0

CCSDS_OMM_VERS = 2.0
CREATION_DATE  = 
ORIGINATOR     = 

OBJECT_NAME    = SL-14 R/B
OBJECT_ID      = 1985-069B
CENTER_NAME    = EARTH
REF_FRAME      = TEME
TIME_SYSTEM    = UTC
MEAN_ELEMENT_THEORY = SGP/SGP4

EPOCH          = 2026-03-21T12:36:57.084480
MEAN_MOTION    = 14.86445859
ECCENTRICITY   = .00195266
INCLINATION    = 82.5301
RA_OF_ASC_NODE = 13.8058
ARG_OF_PERICENTER = 149.0039
MEAN_ANOMALY   = 211.2335

EPHEMERIS_TYPE = 0
CLASSIFICATION_TYPE = U
NORAD_CAT_ID   = 15945
ELEMENT_SET_NO = 999
REV_AT_EPOCH   = 17459
BSTAR          = .54688738E-4
MEAN_MOTION_DOT = .509E-5
MEAN_MOTION_DDOT = 0

CCSDS_OMM_VERS = 2.0
CREATION_DATE  = 
ORIGINATOR     = 

OBJECT_NAME    = SL-16 R/B
OBJECT_ID      = 1985-097B
CENTER_NAME    = EARTH
REF_FRAME      = TEME
TIME_SYSTEM    = UTC
MEAN_ELEMENT_THEORY = SGP/SGP4

EPOCH          = 2026-03-21T13:51:53.825184
MEAN_MOTION    = 14.16601231
ECCENTRICITY   = .00095797
INCLINATION    = 71.0013
RA_OF_ASC_NODE = 115.5264
ARG_OF_PERICENTER = 245.5268
MEAN_ANOMALY   = 229.6900

EPHEMERIS_TYPE = 0
CLASSIFICATION_TYPE = U
NORAD_CAT_ID   = 16182
ELEMENT_SET_NO = 999
REV_AT_EPOCH   = 8891
BSTAR          = .15824775E-3
MEAN_MOTION_DOT = .268E-5
MEAN_MOTION_DDOT = 0

CCSDS_OMM_VERS = 2.0
CREATION_DATE  = 
ORIGINATOR     = 

OBJECT_NAME    = SL-14 R/B
OBJECT_ID      = 1986-006B
CENTER_NAME    = EARTH
REF_FRAME      = TEME
TIME_SYSTEM    = UTC
MEAN_ELEMENT_THEORY = SGP/SGP4

EPOCH          = 2026-03-21T13:36:26.716896
MEAN_MOTION    = 14.86832231
ECCENTRICITY   = .00753366
INCLINATION    = 82.5239
RA_OF_ASC_NODE = 248.5554
ARG_OF_PERICENTER = 232.6794
MEAN_ANOMALY   = 126.7543

EPHEMERIS_TYPE = 0
CLASSIFICATION_TYPE = U
NORAD_CAT_ID   = 16496
ELEMENT_SET_NO = 999
REV_AT_EPOCH   = 15097
BSTAR          = .82207859E-4
MEAN_MOTION_DOT = .797E-5
MEAN_MOTION_DDOT = 0

CCSDS_OMM_VERS = 2.0
CREATION_DATE  = 
ORIGINATOR     = 

OBJECT_NAME    = COSMOS 1743
OBJECT_ID      = 1986-034A
CENTER_NAME    = EARTH
REF_FRAME      = TEME
TIME_SYSTEM    = UTC
MEAN_ELEMENT_THEORY = SGP/SGP4

EPOCH          = 2026-03-21T09:18:55.944864
MEAN_MOTION    = 15.59428090
ECCENTRICITY   = .00027374
INCLINATION    = 82.5300
RA_OF_ASC_NODE = 61.5427
ARG_OF_PERICENTER = 198.5015
MEAN_ANOMALY   = 161.6143

EPHEMERIS_TYPE = 0
CLASSIFICATION_TYPE = U
NORAD_CAT_ID   = 16719
ELEMENT_SET_NO = 999
REV_AT_EPOCH   = 18207
BSTAR          = .72551305E-3
MEAN_MOTION_DOT = .57665E-3
MEAN_MOTION_DDOT = 0

