SL-3 R/B                
1 13403U 82079B   26080.54397738  .00008380  00000+0  33214-3 0  9993
2 13403  81.1490 179.0812 0025481 125.6431 234.7181 15.24957980379506
SL-14 R/B               
1 13553U 82092B   26080.57544108  .00000438  00000+0  46436-4 0  9999
2 13553  82.5672 130.2816 0018772 261.0209 260.3175 14.86676931330691
SL-3 R/B                
1 13819U 83010B   26080.47165117  .00021644  00000+0  42908-3 0  9994
2 13819  81.1058 347.8008 0016822  11.8751 348.2887 15.46744086359764
SL-3 R/B                
1 14208U 83075B   26080.58905646  .00014647  00000+0  38229-3 0  9995
2 14208  97.6140  85.6191 0021413 181.7426 178.3748 15.38683742331983
COSMOS 1536             
1 14699U 84013A   26080.53925673  .00007818  00000+0  32108-3 0  9991
2 14699  82.5413  96.0666 0012695 236.1827 123.8202 15.23973546274421
SL-14 R/B               
1 14820U 84027B   26080.47714088  .00000519  00000+0  56519-4 0  9995
2 14820  82.5401 233.9556 0016605 296.6556  63.2959 14.85988517249383
SL-8 R/B                
1 15483U 85006B   26080.55693043  .00000359  00000+0  12782-3 0  9990
2 15483  74.0438 239.3093 0017959 153.8661 271.8865 14.37792024155736
SL-12 R/B(2)            
1 15772U 85042D   26080.38047439  .00000063  00000+0  49542-4 0  9991
2 15772  71.1071  63.0269 0032904 108.7951 357.9679 14.21985462116057
SL-14 R/B               
1 15945U 85069B   26080.52566070  .00000509  00000+0  54689-4 0  9998
2 15945  82.5301  13.8058 0019526 149.0039 211.2335 14.86445859174596
SL-16 R/B               
1 16182U 85097B   26080.57770631  .00000268  00000+0  15825-3 0  9998
2 16182  71.0013 115.5264 0009579 245.5268 229.6900 14.16601231 88917
SL-14 R/B               
1 16496U 86006B   26080.56697589  .00000797  00000+0  82208-4 0  9993
2 16496  82.5239 248.5554 0075336 232.6794 126.7543 14.86832231150975
COSMOS 1743             
1 16719U 86034A   26080.38814751  .00057665  00000+0  72551-3 0  9999
2 16719  82.5300  61.5427 0002737 198.5015 161.6143 15.59428090182070
